[{"OBJECT_NAME":"NUSAT-35 (WILLIAMINA)","OBJECT_ID":"2023-001AR","EPOCH":"2026-03-09T22:28:40.425600","MEAN_MOTION":15.3245616,"ECCENTRICITY":0.00136635,"INCLINATION":97.1993,"RA_OF_ASC_NODE":124.278,"ARG_OF_PERICENTER":97.0313,"MEAN_ANOMALY":263.2484,"EPHEMERIS_TYPE":0,"CLASSIFICATION_TYPE":"U","NORAD_CAT_ID":55048,"ELEMENT_SET_NO":999,"REV_AT_EPOCH":17719,"BSTAR":0.00053479647,"MEAN_MOTION_DOT":0.0001675,"MEAN_MOTION_DDOT":0},{"OBJECT_NAME":"STARLINK-32440","OBJECT_ID":"2024-196H","EPOCH":"2026-03-09T22:25:10.464960","MEAN_MOTION":15.30184821,"ECCENTRICITY":0.00011039,"INCLINATION":53.1607,"RA_OF_ASC_NODE":100.2285,"ARG_OF_PERICENTER":107.4403,"MEAN_ANOMALY":252.6719,"EPHEMERIS_TYPE":0,"CLASSIFICATION_TYPE":"U","NORAD_CAT_ID":61714,"ELEMENT_SET_NO":999,"REV_AT_EPOCH":7719,"BSTAR":5.5488722e-5,"MEAN_MOTION_DOT":1.284e-5,"MEAN_MOTION_DDOT":0}]
